{
  "type": "FeatureCollection",
  "features": [
    {
      "type": "Feature",
      "properties": {
        "norad_id": 34492,
        "name": "IRIDIUM 33 DEB",
        "group": "iridium-33-debris",
        "lat": 76.04936497620764,
        "lon": -11.628857374413354,
        "alt_km": 922.9690377932338,
        "timestamp": "2025-12-14T07:33:19.863409+00:00",
        "meta_object_name": "IRIDIUM 33 DEB",
        "meta_object_id": "1997-051GH",
        "meta_epoch": "2025-12-12T23:19:24.163680",
        "meta_mean_motion": 14.25737057,
        "meta_eccentricity": 0.01891196,
        "meta_inclination": 86.4723,
        "meta_ra_of_asc_node": 334.5351,
        "meta_arg_of_pericenter": 237.4159,
        "meta_mean_anomaly": 151.0038,
        "meta_ephemeris_type": 0,
        "meta_classification_type": "U",
        "meta_norad_cat_id": 34492,
        "meta_element_set_no": 999,
        "meta_rev_at_epoch": 85062,
        "meta_bstar": 0.0063651158,
        "meta_mean_motion_dot": 0.00018276,
        "meta_mean_motion_ddot": 0,
        "tle_line1": "1 34492U 97051GH  25346.97180745  .00018276  00000+0  63651-2 0  9991",
        "tle_line2": "2 34492  86.4723 334.5351 0189119 237.4159 151.0038 14.25737057850628"
      },
      "geometry": {
        "type": "Point",
        "coordinates": [
          -11.628857374413354,
          76.04936497620764
        ]
      }
    },
    {
      "type": "Feature",
      "properties": {
        "norad_id": 34497,
        "name": "IRIDIUM 33 DEB",
        "group": "iridium-33-debris",
        "lat": -34.78394660309525,
        "lon": 49.13690402606415,
        "alt_km": 750.7503180853028,
        "timestamp": "2025-12-14T07:33:19.863420+00:00",
        "meta_object_name": "IRIDIUM 33 DEB",
        "meta_object_id": "1997-051GN",
        "meta_epoch": "2025-12-13T15:30:28.114272",
        "meta_mean_motion": 14.27457632,
        "meta_eccentricity": 0.00787124,
        "meta_inclination": 86.2778,
        "meta_ra_of_asc_node": 52.0141,
        "meta_arg_of_pericenter": 336.6092,
        "meta_mean_anomaly": 154.8087,
        "meta_ephemeris_type": 0,
        "meta_classification_type": "U",
        "meta_norad_cat_id": 34497,
        "meta_element_set_no": 999,
        "meta_rev_at_epoch": 86896,
        "meta_bstar": 0.0008195509,
        "meta_mean_motion_dot": 2.096e-05,
        "meta_mean_motion_ddot": 0,
        "tle_line1": "1 34497U 97051GN  25347.64615873  .00002096  00000+0  81955-3 0  9997",
        "tle_line2": "2 34497  86.2778  52.0141 0078712 336.6092 154.8087 14.27457632868965"
      },
      "geometry": {
        "type": "Point",
        "coordinates": [
          49.13690402606415,
          -34.78394660309525
        ]
      }
    },
    {
      "type": "Feature",
      "properties": {
        "norad_id": 34508,
        "name": "IRIDIUM 33 DEB",
        "group": "iridium-33-debris",
        "lat": -5.934142959188921,
        "lon": -77.64693372375457,
        "alt_km": 722.5206136935767,
        "timestamp": "2025-12-14T07:33:19.863430+00:00",
        "meta_object_name": "IRIDIUM 33 DEB",
        "meta_object_id": "1997-051GZ",
        "meta_epoch": "2025-12-12T17:57:57.853728",
        "meta_mean_motion": 14.3842932,
        "meta_eccentricity": 0.00660592,
        "meta_inclination": 86.3696,
        "meta_ra_of_asc_node": 102.6391,
        "meta_arg_of_pericenter": 172.9661,
        "meta_mean_anomaly": 187.2481,
        "meta_ephemeris_type": 0,
        "meta_classification_type": "U",
        "meta_norad_cat_id": 34508,
        "meta_element_set_no": 999,
        "meta_rev_at_epoch": 87309,
        "meta_bstar": 0.002129503,
        "meta_mean_motion_dot": 6.683e-05,
        "meta_mean_motion_ddot": 0,
        "tle_line1": "1 34508U 97051GZ  25346.74858627  .00006683  00000+0  21295-2 0  9992",
        "tle_line2": "2 34508  86.3696 102.6391 0066059 172.9661 187.2481 14.38429320873094"
      },
      "geometry": {
        "type": "Point",
        "coordinates": [
          -77.64693372375457,
          -5.934142959188921
        ]
      }
    },
    {
      "type": "Feature",
      "properties": {
        "norad_id": 34521,
        "name": "IRIDIUM 33 DEB",
        "group": "iridium-33-debris",
        "lat": 35.28257419118935,
        "lon": -152.7121261323955,
        "alt_km": 679.4558132405009,
        "timestamp": "2025-12-14T07:33:19.863441+00:00",
        "meta_object_name": "IRIDIUM 33 DEB",
        "meta_object_id": "1997-051HN",
        "meta_epoch": "2025-12-13T12:50:41.718912",
        "meta_mean_motion": 14.63378229,
        "meta_eccentricity": 0.00016341,
        "meta_inclination": 86.3806,
        "meta_ra_of_asc_node": 30.1979,
        "meta_arg_of_pericenter": 209.548,
        "meta_mean_anomaly": 150.564,
        "meta_ephemeris_type": 0,
        "meta_classification_type": "U",
        "meta_norad_cat_id": 34521,
        "meta_element_set_no": 999,
        "meta_rev_at_epoch": 88484,
        "meta_bstar": 0.0010694901,
        "meta_mean_motion_dot": 5.548e-05,
        "meta_mean_motion_ddot": 0,
        "tle_line1": "1 34521U 97051HN  25347.53520508  .00005548  00000+0  10695-2 0  9990",
        "tle_line2": "2 34521  86.3806  30.1979 0001634 209.5480 150.5640 14.63378229884847"
      },
      "geometry": {
        "type": "Point",
        "coordinates": [
          -152.7121261323955,
          35.28257419118935
        ]
      }
    },
    {
      "type": "Feature",
      "properties": {
        "norad_id": 34525,
        "name": "IRIDIUM 33 DEB",
        "group": "iridium-33-debris",
        "lat": -27.8152435206838,
        "lon": -131.91074731885394,
        "alt_km": 756.9059816273357,
        "timestamp": "2025-12-14T07:33:19.863451+00:00",
        "meta_object_name": "IRIDIUM 33 DEB",
        "meta_object_id": "1997-051HS",
        "meta_epoch": "2025-12-13T16:11:18.522816",
        "meta_mean_motion": 14.42909183,
        "meta_eccentricity": 0.00066446,
        "meta_inclination": 86.3731,
        "meta_ra_of_asc_node": 46.4448,
        "meta_arg_of_pericenter": 93.1632,
        "meta_mean_anomaly": 30.6633,
        "meta_ephemeris_type": 0,
        "meta_classification_type": "U",
        "meta_norad_cat_id": 34525,
        "meta_element_set_no": 999,
        "meta_rev_at_epoch": 88101,
        "meta_bstar": 0.00049523387,
        "meta_mean_motion_dot": 1.674e-05,
        "meta_mean_motion_ddot": 0,
        "tle_line1": "1 34525U 97051HS  25347.67451994  .00001674  00000+0  49523-3 0  9990",
        "tle_line2": "2 34525  86.3731  46.4448 0006644  93.1632  30.6633 14.42909183881013"
      },
      "geometry": {
        "type": "Point",
        "coordinates": [
          -131.91074731885394,
          -27.8152435206838
        ]
      }
    },
    {
      "type": "Feature",
      "properties": {
        "norad_id": 34529,
        "name": "IRIDIUM 33 DEB",
        "group": "iridium-33-debris",
        "lat": 86.32271575569759,
        "lon": 116.37419819938961,
        "alt_km": 748.5088737995347,
        "timestamp": "2025-12-14T07:33:19.863461+00:00",
        "meta_object_name": "IRIDIUM 33 DEB",
        "meta_object_id": "1997-051HW",
        "meta_epoch": "2025-12-13T04:28:09.694848",
        "meta_mean_motion": 14.40616367,
        "meta_eccentricity": 0.00048664,
        "meta_inclination": 86.3641,
        "meta_ra_of_asc_node": 35.2216,
        "meta_arg_of_pericenter": 175.3623,
        "meta_mean_anomaly": 184.7623,
        "meta_ephemeris_type": 0,
        "meta_classification_type": "U",
        "meta_norad_cat_id": 34529,
        "meta_element_set_no": 999,
        "meta_rev_at_epoch": 88148,
        "meta_bstar": 0.00016827646,
        "meta_mean_motion_dot": 5.56e-06,
        "meta_mean_motion_ddot": 0,
        "tle_line1": "1 34529U 97051HW  25347.18622332  .00000556  00000+0  16828-3 0  9996",
        "tle_line2": "2 34529  86.3641  35.2216 0004866 175.3623 184.7623 14.40616367881481"
      },
      "geometry": {
        "type": "Point",
        "coordinates": [
          116.37419819938961,
          86.32271575569759
        ]
      }
    },
    {
      "type": "Feature",
      "properties": {
        "norad_id": 34538,
        "name": "IRIDIUM 33 DEB",
        "group": "iridium-33-debris",
        "lat": -61.84356966761727,
        "lon": -2.120792968990505,
        "alt_km": 735.7599571501623,
        "timestamp": "2025-12-14T07:33:19.863472+00:00",
        "meta_object_name": "IRIDIUM 33 DEB",
        "meta_object_id": "1997-051JF",
        "meta_epoch": "2025-12-12T19:29:58.055136",
        "meta_mean_motion": 14.42648871,
        "meta_eccentricity": 0.0032777,
        "meta_inclination": 86.2773,
        "meta_ra_of_asc_node": 5.524,
        "meta_arg_of_pericenter": 327.8022,
        "meta_mean_anomaly": 92.8362,
        "meta_ephemeris_type": 0,
        "meta_classification_type": "U",
        "meta_norad_cat_id": 34538,
        "meta_element_set_no": 999,
        "meta_rev_at_epoch": 87757,
        "meta_bstar": 0.0014020322,
        "meta_mean_motion_dot": 4.708e-05,
        "meta_mean_motion_ddot": 0,
        "tle_line1": "1 34538U 97051JF  25346.81247749  .00004708  00000+0  14020-2 0  9994",
        "tle_line2": "2 34538  86.2773   5.5240 0032777 327.8022  92.8362 14.42648871877573"
      },
      "geometry": {
        "type": "Point",
        "coordinates": [
          -2.120792968990505,
          -61.84356966761727
        ]
      }
    }
  ]
}